CCSDS_OMM_VERS = 2.0
CREATION_DATE  = 
ORIGINATOR     = 

OBJECT_NAME    = STARLINK-36607
OBJECT_ID      = 2026-020D
CENTER_NAME    = EARTH
REF_FRAME      = TEME
TIME_SYSTEM    = UTC
MEAN_ELEMENT_THEORY = SGP/SGP4

EPOCH          = 2026-01-30T08:15:55.399680
MEAN_MOTION    = 16.02007763
ECCENTRICITY   = .00069
INCLINATION    = 43.0100
RA_OF_ASC_NODE = 17.8878
ARG_OF_PERICENTER = 318.5000
MEAN_ANOMALY   = 14.7500

EPHEMERIS_TYPE = 0
CLASSIFICATION_TYPE = U
NORAD_CAT_ID   = 67620
ELEMENT_SET_NO = 999
REV_AT_EPOCH   = 1
BSTAR          = 0
MEAN_MOTION_DOT = -.2705E-4
MEAN_MOTION_DDOT = .8550678E-5

CCSDS_OMM_VERS = 2.0
CREATION_DATE  = 
ORIGINATOR     = 

OBJECT_NAME    = STARLINK-36615
OBJECT_ID      = 2026-020E
CENTER_NAME    = EARTH
REF_FRAME      = TEME
TIME_SYSTEM    = UTC
MEAN_ELEMENT_THEORY = SGP/SGP4

EPOCH          = 2026-01-30T08:15:55.399680
MEAN_MOTION    = 16.02007763
ECCENTRICITY   = .00069
INCLINATION    = 43.0100
RA_OF_ASC_NODE = 17.8878
ARG_OF_PERICENTER = 318.5000
MEAN_ANOMALY   = 14.7500

EPHEMERIS_TYPE = 0
CLASSIFICATION_TYPE = U
NORAD_CAT_ID   = 67621
ELEMENT_SET_NO = 999
REV_AT_EPOCH   = 1
BSTAR          = 0
MEAN_MOTION_DOT = -.2705E-4
MEAN_MOTION_DDOT = .8550678E-5

CCSDS_OMM_VERS = 2.0
CREATION_DATE  = 
ORIGINATOR     = 

OBJECT_NAME    = STARLINK-36614
OBJECT_ID      = 2026-020F
CENTER_NAME    = EARTH
REF_FRAME      = TEME
TIME_SYSTEM    = UTC
MEAN_ELEMENT_THEORY = SGP/SGP4

EPOCH          = 2026-01-30T08:15:55.399680
MEAN_MOTION    = 16.02007763
ECCENTRICITY   = .00069
INCLINATION    = 43.0100
RA_OF_ASC_NODE = 17.8878
ARG_OF_PERICENTER = 318.5000
MEAN_ANOMALY   = 14.7500

EPHEMERIS_TYPE = 0
CLASSIFICATION_TYPE = U
NORAD_CAT_ID   = 67622
ELEMENT_SET_NO = 999
REV_AT_EPOCH   = 1
BSTAR          = 0
MEAN_MOTION_DOT = -.2705E-4
MEAN_MOTION_DDOT = .8550678E-5

CCSDS_OMM_VERS = 2.0
CREATION_DATE  = 
ORIGINATOR     = 

OBJECT_NAME    = STARLINK-36600
OBJECT_ID      = 2026-020G
CENTER_NAME    = EARTH
REF_FRAME      = TEME
TIME_SYSTEM    = UTC
MEAN_ELEMENT_THEORY = SGP/SGP4

EPOCH          = 2026-01-30T08:15:55.399680
MEAN_MOTION    = 16.02007763
ECCENTRICITY   = .00069
INCLINATION    = 43.0100
RA_OF_ASC_NODE = 17.8878
ARG_OF_PERICENTER = 318.5000
MEAN_ANOMALY   = 14.7500

EPHEMERIS_TYPE = 0
CLASSIFICATION_TYPE = U
NORAD_CAT_ID   = 67623
ELEMENT_SET_NO = 999
REV_AT_EPOCH   = 1
BSTAR          = 0
MEAN_MOTION_DOT = -.2705E-4
MEAN_MOTION_DDOT = .8550678E-5

CCSDS_OMM_VERS = 2.0
CREATION_DATE  = 
ORIGINATOR     = 

OBJECT_NAME    = STARLINK-36439
OBJECT_ID      = 2026-020H
CENTER_NAME    = EARTH
REF_FRAME      = TEME
TIME_SYSTEM    = UTC
MEAN_ELEMENT_THEORY = SGP/SGP4

EPOCH          = 2026-01-30T08:15:55.399680
MEAN_MOTION    = 16.02007763
ECCENTRICITY   = .00069
INCLINATION    = 43.0100
RA_OF_ASC_NODE = 17.8878
ARG_OF_PERICENTER = 318.5000
MEAN_ANOMALY   = 14.7500

EPHEMERIS_TYPE = 0
CLASSIFICATION_TYPE = U
NORAD_CAT_ID   = 67624
ELEMENT_SET_NO = 999
REV_AT_EPOCH   = 1
BSTAR          = 0
MEAN_MOTION_DOT = -.2705E-4
MEAN_MOTION_DDOT = .8550678E-5

CCSDS_OMM_VERS = 2.0
CREATION_DATE  = 
ORIGINATOR     = 

OBJECT_NAME    = STARLINK-36438
OBJECT_ID      = 2026-020J
CENTER_NAME    = EARTH
REF_FRAME      = TEME
TIME_SYSTEM    = UTC
MEAN_ELEMENT_THEORY = SGP/SGP4

EPOCH          = 2026-01-30T08:15:55.399680
MEAN_MOTION    = 16.02007763
ECCENTRICITY   = .00069
INCLINATION    = 43.0100
RA_OF_ASC_NODE = 17.8878
ARG_OF_PERICENTER = 318.5000
MEAN_ANOMALY   = 14.7500

EPHEMERIS_TYPE = 0
CLASSIFICATION_TYPE = U
NORAD_CAT_ID   = 67625
ELEMENT_SET_NO = 999
REV_AT_EPOCH   = 1
BSTAR          = 0
MEAN_MOTION_DOT = -.2705E-4
MEAN_MOTION_DDOT = .8550678E-5

CCSDS_OMM_VERS = 2.0
CREATION_DATE  = 
ORIGINATOR     = 

OBJECT_NAME    = STARLINK-36436
OBJECT_ID      = 2026-020K
CENTER_NAME    = EARTH
REF_FRAME      = TEME
TIME_SYSTEM    = UTC
MEAN_ELEMENT_THEORY = SGP/SGP4

EPOCH          = 2026-01-30T08:15:55.399680
MEAN_MOTION    = 16.02007763
ECCENTRICITY   = .00069
INCLINATION    = 43.0100
RA_OF_ASC_NODE = 17.8878
ARG_OF_PERICENTER = 318.5000
MEAN_ANOMALY   = 14.7500

EPHEMERIS_TYPE = 0
CLASSIFICATION_TYPE = U
NORAD_CAT_ID   = 67626
ELEMENT_SET_NO = 999
REV_AT_EPOCH   = 1
BSTAR          = 0
MEAN_MOTION_DOT = -.2705E-4
MEAN_MOTION_DDOT = .8550678E-5

CCSDS_OMM_VERS = 2.0
CREATION_DATE  = 
ORIGINATOR     = 

OBJECT_NAME    = STARLINK-36502
OBJECT_ID      = 2026-020L
CENTER_NAME    = EARTH
REF_FRAME      = TEME
TIME_SYSTEM    = UTC
MEAN_ELEMENT_THEORY = SGP/SGP4

EPOCH          = 2026-01-30T08:15:55.399680
MEAN_MOTION    = 16.02007763
ECCENTRICITY   = .00069
INCLINATION    = 43.0100
RA_OF_ASC_NODE = 17.8878
ARG_OF_PERICENTER = 318.5000
MEAN_ANOMALY   = 14.7500

EPHEMERIS_TYPE = 0
CLASSIFICATION_TYPE = U
NORAD_CAT_ID   = 67627
ELEMENT_SET_NO = 999
REV_AT_EPOCH   = 1
BSTAR          = 0
MEAN_MOTION_DOT = -.2705E-4
MEAN_MOTION_DDOT = .8550678E-5

CCSDS_OMM_VERS = 2.0
CREATION_DATE  = 
ORIGINATOR     = 

OBJECT_NAME    = STARLINK-36532
OBJECT_ID      = 2026-020M
CENTER_NAME    = EARTH
REF_FRAME      = TEME
TIME_SYSTEM    = UTC
MEAN_ELEMENT_THEORY = SGP/SGP4

EPOCH          = 2026-01-30T08:15:55.399680
MEAN_MOTION    = 16.02007763
ECCENTRICITY   = .00069
INCLINATION    = 43.0100
RA_OF_ASC_NODE = 17.8878
ARG_OF_PERICENTER = 318.5000
MEAN_ANOMALY   = 14.7500

EPHEMERIS_TYPE = 0
CLASSIFICATION_TYPE = U
NORAD_CAT_ID   = 67628
ELEMENT_SET_NO = 999
REV_AT_EPOCH   = 1
BSTAR          = 0
MEAN_MOTION_DOT = -.2705E-4
MEAN_MOTION_DDOT = .8550678E-5

CCSDS_OMM_VERS = 2.0
CREATION_DATE  = 
ORIGINATOR     = 

OBJECT_NAME    = STARLINK-36367
OBJECT_ID      = 2026-020N
CENTER_NAME    = EARTH
REF_FRAME      = TEME
TIME_SYSTEM    = UTC
MEAN_ELEMENT_THEORY = SGP/SGP4

EPOCH          = 2026-01-30T08:15:55.399680
MEAN_MOTION    = 16.02007763
ECCENTRICITY   = .00069
INCLINATION    = 43.0100
RA_OF_ASC_NODE = 17.8878
ARG_OF_PERICENTER = 318.5000
MEAN_ANOMALY   = 14.7500

EPHEMERIS_TYPE = 0
CLASSIFICATION_TYPE = U
NORAD_CAT_ID   = 67629
ELEMENT_SET_NO = 999
REV_AT_EPOCH   = 1
BSTAR          = 0
MEAN_MOTION_DOT = -.2705E-4
MEAN_MOTION_DDOT = .8550678E-5

CCSDS_OMM_VERS = 2.0
CREATION_DATE  = 
ORIGINATOR     = 

OBJECT_NAME    = STARLINK-36416
OBJECT_ID      = 2026-020P
CENTER_NAME    = EARTH
REF_FRAME      = TEME
TIME_SYSTEM    = UTC
MEAN_ELEMENT_THEORY = SGP/SGP4

EPOCH          = 2026-01-30T08:15:55.399680
MEAN_MOTION    = 16.02007763
ECCENTRICITY   = .00069
INCLINATION    = 43.0100
RA_OF_ASC_NODE = 17.8878
ARG_OF_PERICENTER = 318.5000
MEAN_ANOMALY   = 14.7500

EPHEMERIS_TYPE = 0
CLASSIFICATION_TYPE = U
NORAD_CAT_ID   = 67630
ELEMENT_SET_NO = 999
REV_AT_EPOCH   = 1
BSTAR          = 0
MEAN_MOTION_DOT = -.2705E-4
MEAN_MOTION_DDOT = .8550678E-5

CCSDS_OMM_VERS = 2.0
CREATION_DATE  = 
ORIGINATOR     = 

OBJECT_NAME    = STARLINK-36527
OBJECT_ID      = 2026-020Q
CENTER_NAME    = EARTH
REF_FRAME      = TEME
TIME_SYSTEM    = UTC
MEAN_ELEMENT_THEORY = SGP/SGP4

EPOCH          = 2026-01-30T08:15:55.399680
MEAN_MOTION    = 16.02007763
ECCENTRICITY   = .00069
INCLINATION    = 43.0100
RA_OF_ASC_NODE = 17.8878
ARG_OF_PERICENTER = 318.5000
MEAN_ANOMALY   = 14.7500

EPHEMERIS_TYPE = 0
CLASSIFICATION_TYPE = U
NORAD_CAT_ID   = 67631
ELEMENT_SET_NO = 999
REV_AT_EPOCH   = 1
BSTAR          = 0
MEAN_MOTION_DOT = -.2705E-4
MEAN_MOTION_DDOT = .8550678E-5

