STARLINK-36607          
1 67620U 26020D   26030.34439120 -.00002705  85507-5  00000+0 0  9992
2 67620  43.0100  17.8878 0006900 318.5000  14.7500 16.02007763    12
STARLINK-36615          
1 67621U 26020E   26030.34439120 -.00002705  85507-5  00000+0 0  9993
2 67621  43.0100  17.8878 0006900 318.5000  14.7500 16.02007763    13
STARLINK-36614          
1 67622U 26020F   26030.34439120 -.00002705  85507-5  00000+0 0  9994
2 67622  43.0100  17.8878 0006900 318.5000  14.7500 16.02007763    14
STARLINK-36600          
1 67623U 26020G   26030.34439120 -.00002705  85507-5  00000+0 0  9995
2 67623  43.0100  17.8878 0006900 318.5000  14.7500 16.02007763    15
STARLINK-36439          
1 67624U 26020H   26030.34439120 -.00002705  85507-5  00000+0 0  9996
2 67624  43.0100  17.8878 0006900 318.5000  14.7500 16.02007763    16
STARLINK-36438          
1 67625U 26020J   26030.34439120 -.00002705  85507-5  00000+0 0  9997
2 67625  43.0100  17.8878 0006900 318.5000  14.7500 16.02007763    17
STARLINK-36436          
1 67626U 26020K   26030.34439120 -.00002705  85507-5  00000+0 0  9998
2 67626  43.0100  17.8878 0006900 318.5000  14.7500 16.02007763    18
STARLINK-36502          
1 67627U 26020L   26030.34439120 -.00002705  85507-5  00000+0 0  9999
2 67627  43.0100  17.8878 0006900 318.5000  14.7500 16.02007763    19
STARLINK-36532          
1 67628U 26020M   26030.34439120 -.00002705  85507-5  00000+0 0  9990
2 67628  43.0100  17.8878 0006900 318.5000  14.7500 16.02007763    10
STARLINK-36367          
1 67629U 26020N   26030.34439120 -.00002705  85507-5  00000+0 0  9991
2 67629  43.0100  17.8878 0006900 318.5000  14.7500 16.02007763    11
STARLINK-36416          
1 67630U 26020P   26030.34439120 -.00002705  85507-5  00000+0 0  9993
2 67630  43.0100  17.8878 0006900 318.5000  14.7500 16.02007763    13
STARLINK-36527          
1 67631U 26020Q   26030.34439120 -.00002705  85507-5  00000+0 0  9994
2 67631  43.0100  17.8878 0006900 318.5000  14.7500 16.02007763    14
